GLOBALSTAR M024         
1 25883U 99043A   24349.73031406 -.00000003  00000+0  21923-2 0  9999
2 25883  52.0028  76.8189 0002258 144.0614  19.2925 11.10162631 94374
GLOBALSTAR M027         
1 25884U 99043B   24350.12215834 -.00000123  00000+0 -22431-2 0  9993
2 25884  52.0175 148.7025 0022128  56.6459 303.6449 11.04371222120944
GLOBALSTAR M054         
1 25885U 99043C   24350.32855028  .00000047  00000+0  30086-2 0  9999
2 25885  52.0157 306.3995 0005636 224.7535 289.5264 11.39209166 98420
GLOBALSTAR M053         
1 25886U 99043D   24349.78122712 -.00000027  00000+0  12222-2 0  9996
2 25886  51.9973 244.5742 0004005 112.3042 288.2143 11.27661194 98648
GLOBALSTAR M050         
1 25908U 99049B   24350.46576877 -.00000093  00000+0 -55523-4 0  9996
2 25908  51.9989 261.1596 0009907  28.3542 143.7539 12.07446359130722
GLOBALSTAR M055         
1 25910U 99049D   24349.78539582 -.00000075  00000+0  16808-3 0  9995
2 25910  51.9988 167.3188 0008278 106.6960 253.4801 12.29416980145607
